C/2025 K1 (ATLAS),h,10/08.4404/2025,147.8639,97.5574,271.0192,1.000251,0.334176,2000,12.2,4.0
# From MPEC 2026-A24
C/2025 K1-B,h,10/08.4523/2025,147.9164,97.6393,271.3196,1.001984,0.335724,2000,14.7,4.0
# From MPEC 2026-A24
C/2025 K1-C,e,147.8464,97.5293,270.9179,1497,0.0000170,0.99977707,0.0000,10/08.4391/2025,2000,g 14.0,4.0
# From MPEC 2025-XC1
C/2025 K1-D,h,10/08.4563/2025,147.9347,97.6702,271.4295,1.002519,0.336299,2000,14.0,4.0
# From MPC186633
C/2025 K2 (PANSTARRS),e,113.9794,113.8292,232.4624,25.29907,0.0077455,0.88680734,0.8806,02/16.0/2026,2000,g 13.7,4.0
# From MPC188413
C/2025 K3 (PANSTARRS),h,12/14.1969/2028,104.9362,350.6432,188.6006,1.001384,3.470121,2000,6.4,4.0
# From MPEC 2025-XC7
C/2025 K4 (Siverd),e,38.5445,297.0825,326.9260,43.36079,0.0034519,0.94160423,0.6999,02/16.0/2026,2000,g 14.1,4.0
# From MPEC 2026-A24
C/2025 L1 (ATLAS),h,01/12.7443/2026,114.1360,208.1091,341.2571,1.001396,1.679551,2000,11.4,4.0
# From MPEC 2025-XC7
C/2025 L2 (MAPS),e,86.5840,134.9862,232.6422,486.1495,0.0000919,0.99417124,0.0000,12/20.6619/2025,2000,g 11.7,4.0
# From MPC188414
C/2025 M1 (PANSTARRS),e,64.8917,66.9580,230.4019,5308,0.0000025,0.99795953,0.0000,08/02.8080/2029,2000,g  2.9,4.0
# From MPEC 2025-UQ3
C/2025 M2 (PANSTARRS),h,11/23.4621/2027,173.2152,305.5342,96.7580,1.001967,2.720607,2000,13.4,4.0
# From MPC188414
C/2025 M3 (PANSTARRS),h,07/05.1210/2026,137.4233,65.2658,195.3732,1.019355,6.531981,2000,9.0,4.0
# From MPEC 2025-YF1
C/2025 N2 (ATLAS),h,12/10.7308/2024,81.6649,94.4635,230.0102,1.001795,8.982838,2000,5.1,4.0
# From MPC188414
C/2025 O2 (MAPS),e,134.5446,332.3113,280.2510,2584,0.0000075,0.99911429,0.0000,05/23.7307/2025,2000,g 14.3,4.0
# From MPC188414
A/2025 P1,e,117.7964,342.4210,334.5251,56.79057,0.0023030,0.96168920,0.7426,02/16.0/2026,2000,g 17.1,4.0
# From MPEC 2025-XC7
C/2025 Q1 (ATLAS),e,66.1622,326.9442,280.2328,1288,0.0000213,0.99216024,0.0000,07/11.8961/2024,2000,g  3.8,4.0
# From MPEC 2026-A90
C/2025 Q3 (ATLAS),e,90.1855,233.1437,218.4557,788.9294,0.0000445,0.99732228,0.0000,02/25.6412/2026,2000,g 12.2,4.0
# From MPEC 2026-A24
C/2025 R1 (ATLAS),e,110.0272,60.3973,77.5524,166.4449,0.0004590,0.98813293,0.0000,11/23.3393/2025,2000,g 14.0,4.0
# From MPEC 2026-A90
C/2025 R2 (SWAN),e,4.4729,335.3239,308.3637,86.57663,0.0012235,0.99417696,0.0000,09/12.8428/2025,2000,g 12.4,4.0
# From MPEC 2026-A90
C/2025 R3 (PANSTARRS),h,04/19.8950/2026,124.7308,38.6935,162.2256,1.000348,0.498614,2000,12.2,4.0
# From MPEC 2026-A24
A/2025 S2,e,96.6422,34.4731,31.5896,63.22159,0.0019607,0.97332806,0.0000,01/02.4150/2026,2000,g 16.0,2.0
# From MPEC 2025-XC7
A/2025 S3,e,103.5629,36.7301,71.1271,215.8564,0.0003108,0.98960206,0.0000,06/25.0925/2026,2000,g 15.0,2.0
# From MPEC 2026-A24
C/2025 T1 (ATLAS),e,123.4328,140.4947,114.1409,10989,0.0000009,0.99989910,0.0000,12/02.3754/2025,2000,g 14.7,4.0
# From MPEC 2026-A24
P/2025 U1 (Hogan),e,23.8295,234.9409,264.0761,5.900481,0.0687659,0.29402492,357.3711,02/16.0/2026,2000,g 11.7,4.0
# From MPEC 2026-A24
P/2025 UX109 (Ye),e,3.1816,197.9683,276.1212,3.800138,0.1330470,0.32382793,24.7235,02/16.0/2026,2000,g 13.7,4.0
# From MPEC 2026-A24
C/2025 V1 (Borisov),h,11/16.5433/2025,112.7092,91.8739,47.5693,1.007738,0.462684,2000,16.3,4.0
# From MPEC 2026-A90
C/2025 V2 (Rankin),h,03/22.9906/2027,37.2855,138.0825,102.7179,1.000628,1.952353,2000,9.0,4.0
# From MPEC 2025-YF1
C/2025 W1 (Sankovich),e,79.8004,95.8911,250.6380,10339,0.0000009,0.99959664,0.0000,02/17.7397/2025,2000,g  9.7,4.0
# From MPEC 2026-A24
C/2025 W2 (ATLAS),e,94.7104,90.8447,41.0352,26.92910,0.0070530,0.94603284,0.4949,02/16.0/2026,2000,g 17.9,4.0
# From MPEC 2026-A24
P/2025 W3 (Kresken),e,9.7500,60.0680,311.3250,2.547276,0.2424320,0.18042091,81.5240,02/16.0/2026,2000,g 17.2,4.0
# From MPEC 2026-A90
P/2025 W4 (PANSTARRS),e,1.2980,237.1162,172.2904,2.579524,0.2379002,0.21134725,31.9974,02/16.0/2026,2000,g 17.5,4.0
# From MPEC 2026-A90
C/2025 X1 (PANSTARRS),e,36.9553,95.6351,85.6735,33.84163,0.0050064,0.86207073,358.5073,02/16.0/2026,2000,g 10.2,4.0
# From MPEC 2026-A90
A/2025 Y1,e,14.5517,166.5460,124.2378,1635,0.0000149,0.99840478,0.0000,10/15.0129/2027,2000,g  6.0,2.0
# From MPEC 2026-AC1
P/2025 Y2 (PANSTARRS),e,16.5922,177.4638,345.0478,4.001416,0.1231356,0.23884741,8.5342,02/16.0/2026,2000,g 13.3,4.0
# From MPEC 2026-BC8
C/2025 Y3 (PANSTARRS),h,01/13.7025/2026,89.5485,272.9665,219.3833,1.000649,2.227314,2000,17.0,4.0
# From MPEC 2026-BC9
C/2026 A1 (MAPS),e,144.5086,7.9490,86.5368,110.2447,0.0008515,0.99995053,0.0000,04/04.5644/2026,2000,g 15.6,4.0
# From MPEC 2026-BK2
P/2026 B1 (PANSTARRS),e,4.0214,104.6621,72.6968,3.665377,0.1404514,0.31461269,334.7713,02/16.0/2026,2000,g 15.7,4.0
# From MPEC 2026-BK5
C/2026 B2 (Sun-Gao),e,59.7014,234.6160,47.0061,37.88940,0.0042260,0.96628159,0.1573,02/16.0/2026,2000,g  9.7,4.0
# From MPEC 2025-W75
1P/Halley,e,162.1656,59.4610,112.3597,17.85811,0.0130602,0.96798318,190.7454,02/16.0/2026,2000,g  5.5,3.2
# From MPEC 2025-XC7
2P/Encke,e,11.3473,334.0181,187.2808,2.217966,0.2983814,0.84725200,252.8111,02/16.0/2026,2000,g 11.5,6.0
# From AJ 76, 1135
3D-A/Biela,e,7.2156,276.6829,192.1432,3.551744,0.1472453,0.76711950,64.9150,02/16.0/2026,2000,g 11.0,6.0
# From AJ 76, 1135
3D-B/Biela,e,7.8797,276.2013,192.2624,3.540738,0.1479324,0.76785603,34.4573,02/16.0/2026,2000,g 11.0,6.0
# From MPEC 2026-A90
4P/Faye,e,8.0000,192.8970,207.1594,3.830669,0.1314596,0.57601357,213.1282,02/16.0/2026,2000,g  8.0,6.0
# From MPEC 2025-W75
6P/d'Arrest,e,19.5037,138.9535,178.0337,3.497633,0.1506755,0.61219297,243.2040,02/16.0/2026,2000,g  7.5,16.0
# From MPEC 2026-A24
7P/Pons-Winnecke,e,22.0072,92.8370,174.0411,3.344522,0.1611399,0.66025610,270.5376,02/16.0/2026,2000,g 10.0,6.0
# From MPEC 2025-W75
8P/Tuttle,e,54.9903,270.1919,207.4710,5.706292,0.0723058,0.82073297,118.0019,02/16.0/2026,2000,g  8.0,8.0
# From MPEC 2025-YF1
9P/Tempel,e,10.5283,67.0414,184.5141,3.300276,0.1643913,0.46735285,240.9127,02/16.0/2026,2000,g  5.5,10.0
# From MPEC 2026-A24
10P/Tempel,e,12.0272,117.7978,195.4748,3.064634,0.1837114,0.53740683,329.2974,02/16.0/2026,2000,g  5.0,10.0
# From MPEC 2025-W75
11P/Tempel-Swift-LINEAR,e,14.4309,238.8569,168.0629,3.282698,0.1657134,0.57735235,315.7669,02/16.0/2026,2000,g 17.0,4.0
# From MPEC 2026-A24
12P/Pons-Brooks,e,74.1766,255.8608,199.0234,17.26072,0.0137441,0.95472349,9.1511,02/16.0/2026,2000,g  5.0,6.0
# From MPEC 2025-W75
13P/Olbers,e,44.6615,85.8450,64.4274,16.93492,0.0141426,0.93059837,8.4269,02/16.0/2026,2000,g  5.0,6.0
# From MPEC 2025-W75
14P/Wolf,e,27.9178,202.0129,159.2067,4.255747,0.1122640,0.35652336,335.8578,02/16.0/2026,2000,g  5.5,12.0
# From MPEC 2025-W75
15P/Finlay,e,6.7854,13.7332,347.8682,3.511615,0.1497765,0.71588618,251.5800,02/16.0/2026,2000,g 12.0,4.0
# From MPEC 2025-W75
16P/Brooks,e,3.0098,138.8128,245.3766,3.662769,0.1406015,0.48533139,248.1935,02/16.0/2026,2000,g  7.5,10.0
# From MPEC 2025-W75
17P/Holmes,e,19.0045,326.5990,24.5928,3.642488,0.1417773,0.42610033,258.6586,02/16.0/2026,2000,g 10.0,6.0
# From QJ 19, 80
18D-A/Perrine-Mrkos,e,17.663,158.450,238.179,3.87915,0.129003,0.5894224,69.137,02/16.0/2026,2000,g 16.0,4.0
# From MPEC 2025-W75
19P/Borrelly,e,29.3100,74.2157,352.0167,3.608699,0.1437732,0.63761929,211.9978,02/16.0/2026,2000,g  4.5,10.0
# From MPEC 2025-W75
21P/Giacobini-Zinner,e,32.0565,195.3002,172.9397,3.491008,0.1511046,0.71109982,49.5080,02/16.0/2026,2000,g  9.0,6.0
# From MPEC 2026-A24
22P/Kopff,e,5.0603,119.8753,163.8283,3.366290,0.1595794,0.57880248,222.8780,02/16.0/2026,2000,g  3.0,10.4
# From MPEC 2025-W75
23P/Brorsen-Metcalf,e,19.5021,311.0451,130.1138,16.94544,0.0141294,0.97252215,0.0000,06/23.6241/2059,2000,g  7.8,3.2
# From MPEC 2026-A90
24P/Schaumasse,e,11.5022,78.2704,58.4823,4.057578,0.1205879,0.70821448,4.6619,02/16.0/2026,2000,g  6.5,14.0
# From MPEC 2025-W75
26P/Grigg-Skjellerup,e,22.4447,211.5268,2.1117,3.013980,0.1883621,0.64078136,147.6100,02/16.0/2026,2000,g 12.0,16.0
# From MPEC 2025-W75
27P/Crommelin,e,29.4111,250.6886,195.8638,9.170920,0.0354883,0.91954938,188.3947,02/16.0/2026,2000,g 12.0,8.0
# From MPEC 2025-W75
28P/Neujmin,e,14.2880,346.4241,347.4231,6.978233,0.0534670,0.77244124,96.4929,02/16.0/2026,2000,g  8.5,6.0
# From MPEC 2026-A90
29P/Schwassmann-Wachmann,e,9.3551,312.4012,51.7574,6.057865,0.0661035,0.04297297,164.4908,02/16.0/2026,2000,g  4.0,4.0
# From MPEC 2025-W75
30P/Reinmuth,e,8.0536,117.2292,9.5460,3.736604,0.1364547,0.51445032,74.7365,02/16.0/2026,2000,g  9.5,6.0
# From MPEC 2025-W75
31P/Schwassmann-Wachmann,e,4.5497,114.1126,18.0104,4.229454,0.1133124,0.19365575,273.6408,02/16.0/2026,2000,g  5.0,8.0
# From MPEC 2025-W75
32P/ComasSola,e,9.9181,54.5330,54.7416,4.555954,0.1013526,0.55531233,67.5262,02/16.0/2026,2000,g  6.5,8.0
# From MPEC 2025-W75
33P/Daniel,e,22.2938,66.2800,20.2646,4.091385,0.1190964,0.45181072,55.0389,02/16.0/2026,2000,g 10.0,12.0
# From MPEC 2025-W75
36P/Whipple,e,9.9441,181.8132,201.1992,4.142198,0.1169117,0.26781985,243.8645,02/16.0/2026,2000,g  8.5,6.0
# From MPEC 2025-W75
37P/Forbes,e,8.9478,314.5431,330.0779,3.461656,0.1530306,0.53245617,75.4199,02/16.0/2026,2000,g 10.5,4.8
# From MPEC 2025-W75
38P/Stephan-Oterma,e,18.4078,77.8691,359.6168,11.27188,0.0260441,0.85963970,69.0422,02/16.0/2026,2000,g  3.5,12.0
# From MPEC 2025-W75
39P/Oterma,e,1.7330,289.0967,118.1393,6.964571,0.0536244,0.16524750,46.0288,02/16.0/2026,2000,g  7.0,6.0
# From MPEC 2026-A24
40P/Vaisala,e,11.6404,128.9007,52.0605,4.943988,0.0896578,0.63110851,8.6051,02/16.0/2026,2000,g  5.5,12.0
# From MPEC 2025-W75
41P/Tuttle-Giacobini-Kresak,e,9.2165,140.9764,62.2042,3.087522,0.1816724,0.65984916,227.4152,02/16.0/2026,2000,g 10.0,16.0
# From MPEC 2025-W75
42P/Neujmin,e,3.9884,150.1549,147.1225,4.879870,0.0914306,0.58407737,2.9320,02/16.0/2026,2000,g 13.0,6.0
# From MPEC 2026-A90
43P/Wolf-Harrington,e,9.3300,243.9742,223.7775,4.328969,0.1094277,0.43573953,21.3906,02/16.0/2026,2000,g  8.0,6.0
# From MPEC 2025-W75
44P/Reinmuth,e,5.8957,286.4187,57.9654,3.687865,0.1391687,0.42669937,194.3471,02/16.0/2026,2000,g  8.3,6.0
